NORAD_CAT_ID,OBJECT_NAME,OBJECT_TYPE,EPOCH,MEAN_MOTION,ECCENTRICITY,INCLINATION,RA_OF_ASC_NODE,ARG_OF_PERICENTER,MEAN_ANOMALY,BSTAR,MEAN_MOTION_DOT,MEAN_MOTION_DDOT,TLE_LINE0,TLE_LINE1,TLE_LINE2,SEMIMAJOR_AXIS,PERIOD,APOGEE,PERIGEE,DECAYED
52627.0,STARLINK-3992,PAYLOAD,2023-08-17 01:47:24,15.08843033,0.0001137,53.2169,149.2619,80.7827,279.3294,1.8629e-05,9e-08,0.0,0 STARLINK-3992,1 52627U 22052AF  23229.07459439  .00000009  00000-0  18629-4 0  9991,2 52627  53.2169 149.2619 0001137  80.7827 279.3294 15.08843033 70127,6917.871,95.437,540.523,538.95,0.0
52627.0,STARLINK-3992,PAYLOAD,2023-08-18 23:53:36,15.0883693,0.0001395,53.2181,140.6418,98.8315,261.2835,1.4418e-05,-5.8e-07,0.0,0 STARLINK-3992,1 52627U 22052AF  23230.99556015 -.00000058  00000-0  14418-4 0  9999,2 52627  53.2181 140.6418 0001395  98.8315 261.2835 15.08836930 70412,6917.89,95.438,540.72,538.79,0.0
52627.0,STARLINK-3992,PAYLOAD,2023-08-20 02:55:10,15.08822963,0.000159,53.2187,135.5825,87.082,273.0354,0.00032044,4.813e-05,0.0,0 STARLINK-3992,1 52627U 22052AF  23232.12164411  .00004813  00000-0  32044-3 0  9997,2 52627  53.2187 135.5825 0001590  87.0820 273.0354 15.08822963 70587,6917.932,95.439,540.897,538.698,0.0
52627.0,STARLINK-3992,PAYLOAD,2023-08-20 23:35:12,15.08823291,0.0001426,53.2177,131.7168,87.3425,272.773,-4.4566e-05,-9.97e-06,0.0,0 STARLINK-3992,1 52627U 22052AF  23232.98278032 -.00000997  00000-0 -44566-4 0  9990,2 52627  53.2177 131.7168 0001426  87.3425 272.7730 15.08823291 70710,6917.931,95.439,540.783,538.81,0.0
52627.0,STARLINK-3992,PAYLOAD,2023-08-21 02:45:59,15.08808906,0.0001495,53.2187,131.1208,93.1917,266.9246,-0.00014536,-2.599e-05,0.0,0 STARLINK-3992,1 52627U 22052AF  23233.11527328 -.00002599  00000-0 -14536-3 0  9994,2 52627  53.2187 131.1208 0001495  93.1917 266.9246 15.08808906 70732,6917.975,95.44,540.875,538.806,0.0
52627.0,STARLINK-3992,PAYLOAD,2023-08-21 23:25:58,15.08842494,0.000171,53.2181,127.257,78.9173,281.2011,8.5511e-05,1.073e-05,0.0,0 STARLINK-3992,1 52627U 22052AF  23233.97637170  .00001073  00000-0  85511-4 0  9991,2 52627  53.2181 127.2570 0001710  78.9173 281.2011 15.08842494 70863,6917.873,95.437,540.921,538.555,0.0
52627.0,STARLINK-3992,PAYLOAD,2023-08-23 00:52:08,15.08838807,0.0001477,53.2171,122.5011,90.0202,270.0959,0.00033483,5.045e-05,0.0,0 STARLINK-3992,1 52627U 22052AF  23235.03620557  .00005045  00000-0  33483-3 0  9994,2 52627  53.2171 122.5011 0001477  90.0202 270.0959 15.08838807 71027,6917.884,95.438,540.771,538.727,0.0
52627.0,STARLINK-3992,PAYLOAD,2023-08-24 02:18:18,15.08850139,0.000156,53.2182,117.7409,95.1149,265.0021,-1.792e-05,-5.73e-06,0.0,0 STARLINK-3992,1 52627U 22052AF  23236.09604578 -.00000573  00000-0 -17920-4 0  9998,2 52627  53.2182 117.7409 0001560  95.1149 265.0021 15.08850139 70817,6917.849,95.437,540.794,538.635,0.0
52627.0,STARLINK-3992,PAYLOAD,2023-08-25 02:09:05,15.08848094,0.00014,53.2177,113.2804,99.1978,260.9173,-2.1951e-05,-6.37e-06,0.0,0 STARLINK-3992,1 52627U 22052AF  23237.08964171 -.00000637  00000-0 -21951-4 0  9996,2 52627  53.2177 113.2804 0001400  99.1978 260.9173 15.08848094 70963,6917.856,95.437,540.689,538.752,0.0
52627.0,STARLINK-3992,PAYLOAD,2023-08-25 19:38:19,15.08839177,0.0001423,53.218,110.0092,93.7976,266.3179,1.4538e-05,-5.7e-07,0.0,0 STARLINK-3992,1 52627U 22052AF  23237.81828625 -.00000057  00000-0  14538-4 0  9998,2 52627  53.2180 110.0092 0001423  93.7976 266.3179 15.08839177 71446,6917.883,95.438,540.732,538.763,0.0
52627.0,STARLINK-3992,PAYLOAD,2023-08-25 21:13:43,15.0883989,0.0001428,53.2178,109.7119,94.0547,266.0608,1.9492e-05,2.2e-07,0.0,0 STARLINK-3992,1 52627U 22052AF  23237.88452556  .00000022  00000-0  19492-4 0  9996,2 52627  53.2178 109.7119 0001428  94.0547 266.0608 15.08839890 71087,6917.881,95.438,540.734,538.758,0.0
52627.0,STARLINK-3992,PAYLOAD,2023-08-26 00:24:29,15.08841569,0.0001402,53.2178,109.1171,87.2044,272.9108,3.2348e-05,2.27e-06,0.0,0 STARLINK-3992,1 52627U 22052AF  23238.01700432  .00000227  00000-0  32348-4 0  9993,2 52627  53.2178 109.1171 0001402  87.2044 272.9108 15.08841569 71107,6917.876,95.437,540.71,538.771,0.0
52627.0,STARLINK-3992,PAYLOAD,2023-08-26 21:04:30,15.08837226,0.0001461,53.2174,105.2507,84.1671,275.9488,4.52e-05,4.31e-06,0.0,0 STARLINK-3992,1 52627U 22052AF  23238.87812762  .00000431  00000-0  45200-4 0  9995,2 52627  53.2174 105.2507 0001461  84.1671 275.9488 15.08837226 71233,6917.889,95.438,540.765,538.743,0.0
52627.0,STARLINK-3992,PAYLOAD,2023-08-27 00:15:16,15.08847153,0.0001412,53.2174,104.6577,83.8903,276.225,-1.6499e-05,-5.51e-06,0.0,0 STARLINK-3992,1 52627U 22052AF  23239.01060437 -.00000551  00000-0 -16499-4 0  9999,2 52627  53.2174 104.6577 0001412  83.8903 276.2250 15.08847153 71627,6917.859,95.437,540.7,538.747,0.0
52627.0,STARLINK-3992,PAYLOAD,2023-08-27 14:33:44,15.08838007,0.0001449,53.2174,101.9824,81.167,278.9486,6.204e-05,7e-06,0.0,0 STARLINK-3992,1 52627U 22052AF  23239.60676762  .00000700  00000-0  62040-4 0  9995,2 52627  53.2174 101.9824 0001449  81.1670 278.9486 15.08838007 71712,6917.886,95.438,540.754,538.749,0.0
52627.0,STARLINK-3992,PAYLOAD,2023-08-27 20:55:17,15.0883804,0.0001438,53.2175,100.7926,81.8751,278.2404,4.7545e-05,4.69e-06,0.0,0 STARLINK-3992,1 52627U 22052AF  23239.87172858  .00000469  00000-0  47545-4 0  9996,2 52627  53.2175 100.7926 0001438  81.8751 278.2404 15.08838040 71381,6917.886,95.438,540.746,538.757,0.0
52627.0,STARLINK-3992,PAYLOAD,2023-08-28 08:02:58,15.08851305,0.0001325,53.2172,98.7099,89.3348,270.7796,4.9011e-05,4.92e-06,0.0,0 STARLINK-3992,1 52627U 22052AF  23240.33539823  .00000492  00000-0  49011-4 0  9994,2 52627  53.2172  98.7099 0001325  89.3348 270.7796 15.08851305 71824,6917.846,95.437,540.627,538.794,0.0
52627.0,STARLINK-3992,PAYLOAD,2023-08-28 20:46:03,15.08849359,0.0001319,53.2171,96.3307,89.5936,270.5208,8.9572e-05,1.138e-05,0.0,0 STARLINK-3992,1 52627U 22052AF  23240.86531709  .00001138  00000-0  89572-4 0  9991,2 52627  53.2171  96.3307 0001319  89.5936 270.5208 15.08849359 71537,6917.852,95.437,540.629,538.804,0.0
52627.0,STARLINK-3992,PAYLOAD,2023-08-29 07:53:45,15.08838361,0.000133,53.2174,94.2488,96.1898,263.9245,2.6848e-05,1.39e-06,0.0,0 STARLINK-3992,1 52627U 22052AF  23241.32900423  .00000139  00000-0  26848-4 0  9993,2 52627  53.2174  94.2488 0001330  96.1898 263.9245 15.08838361 71977,6917.885,95.438,540.67,538.83,0.0
52627.0,STARLINK-3992,PAYLOAD,2023-08-29 20:36:51,15.08835555,0.0001422,53.2175,91.8692,103.2046,256.9105,-5.4868e-05,-1.161e-05,0.0,0 STARLINK-3992,1 52627U 22052AF  23241.85893000 -.00001161  00000-0 -54868-4 0  9994,2 52627  53.2175  91.8692 0001422 103.2046 256.9105 15.08835555 71682,6917.894,95.438,540.743,538.775,0.0
52627.0,STARLINK-3992,PAYLOAD,2023-08-29 23:47:37,15.08837848,0.0001409,53.2179,91.2748,102.7792,257.3358,-3.8326e-05,-8.98e-06,0.0,0 STARLINK-3992,1 52627U 22052AF  23241.99140829 -.00000898  00000-0 -38326-4 0  9990,2 52627  53.2179  91.2748 0001409 102.7792 257.3358 15.08837848 71704,6917.887,95.438,540.727,538.777,0.0
52627.0,STARLINK-3992,PAYLOAD,2023-08-30 23:38:24,15.08844347,0.0001518,53.2181,86.8134,107.504,252.6118,-3.104e-05,-7.82e-06,0.0,0 STARLINK-3992,1 52627U 22052AF  23242.98500398 -.00000782  00000-0 -31040-4 0  9999,2 52627  53.2181  86.8134 0001518 107.5040 252.6118 15.08844347 72228,6917.867,95.437,540.782,538.682,0.0
52627.0,STARLINK-3992,PAYLOAD,2023-08-31 23:29:11,15.08834741,0.0001367,53.2177,82.353,109.666,250.448,7.3967e-05,8.89e-06,0.0,0 STARLINK-3992,1 52627U 22052AF  23243.97861011  .00000889  00000-0  73967-4 0  9991,2 52627  53.2177  82.3530 0001367 109.6660 250.4480 15.08834741 72378,6917.896,95.438,540.707,538.816,0.0
52627.0,STARLINK-3992,PAYLOAD,2023-09-01 05:50:44,15.08834935,0.0001397,53.2171,81.1649,88.9172,271.198,7.1116e-05,8.44e-06,0.0,0 STARLINK-3992,1 52627U 22052AF  23244.24357273  .00000844  00000-0  71116-4 0  9997,2 52627  53.2171  81.1649 0001397  88.9172 271.1980 15.08834935 72044,6917.896,95.438,540.727,538.794,0.0
52627.0,STARLINK-3992,PAYLOAD,2023-09-02 05:41:32,15.08834555,0.0001689,53.2097,76.7074,82.7764,277.342,4.8118e-05,4.78e-06,0.0,0 STARLINK-3992,1 52627U 22052AF  23245.23717834  .00000478  00000-0  48118-4 0  9999,2 52627  53.2097  76.7074 0001689  82.7764 277.3420 15.08834555 72568,6917.897,95.438,540.93,538.594,0.0
52627.0,STARLINK-3992,PAYLOAD,2023-09-02 19:59:59,15.08838575,7.16e-05,53.2165,74.03,97.3904,262.7169,0.00011452,1.535e-05,0.0,0 STARLINK-3992,1 52627U 22052AF  23245.83333115  .00001535  00000-0  11452-3 0  9996,2 52627  53.2165  74.0300 0000716  97.3904 262.7169 15.08838575 72288,6917.885,95.438,540.245,539.254,0.0
52627.0,STARLINK-3992,PAYLOAD,2023-09-03 00:46:08,15.08844975,0.0001277,53.2173,73.1367,90.3542,269.7597,0.00013924,1.929e-05,0.0,0 STARLINK-3992,1 52627U 22052AF  23246.03204833  .00001929  00000-0  13924-3 0  9996,2 52627  53.2173  73.1367 0001277  90.3542 269.7597 15.08844975 72681,6917.865,95.437,540.614,538.847,0.0
52627.0,STARLINK-3992,PAYLOAD,2023-09-03 05:32:19,15.08835153,0.0001082,53.2171,72.245,87.4601,272.6515,5.659e-05,6.13e-06,0.0,0 STARLINK-3992,1 52627U 22052AF  23246.23077721  .00000613  00000-0  56590-4 0  9998,2 52627  53.2171  72.2450 0001082  87.4601 272.6515 15.08835153 72714,6917.895,95.438,540.509,539.012,0.0
52627.0,STARLINK-3992,PAYLOAD,2023-09-03 11:53:51,15.0883638,0.0001056,53.2173,71.0552,87.6981,272.4132,6.1493e-05,6.91e-06,0.0,0 STARLINK-3992,1 52627U 22052AF  23246.49573697  .00000691  00000-0  61493-4 0  9993,2 52627  53.2173  71.0552 0001056  87.6981 272.4132 15.08836380 72389,6917.891,95.438,540.487,539.026,0.0
52627.0,STARLINK-3992,PAYLOAD,2023-09-03 21:26:09,15.0884452,0.0001177,53.2171,69.2711,87.4085,272.7042,0.00017138,2.441e-05,0.0,0 STARLINK-3992,1 52627U 22052AF  23246.89316944  .00002441  00000-0  17138-3 0  9998,2 52627  53.2171  69.2711 0001177  87.4085 272.7042 15.08844520 72816,6917.867,95.437,540.546,538.917,0.0
